OBJECT_NAME,OBJECT_ID,EPOCH,MEAN_MOTION,ECCENTRICITY,INCLINATION,RA_OF_ASC_NODE,ARG_OF_PERICENTER,MEAN_ANOMALY,EPHEMERIS_TYPE,CLASSIFICATION_TYPE,NORAD_CAT_ID,ELEMENT_SET_NO,REV_AT_EPOCH,BSTAR,MEAN_MOTION_DOT,MEAN_MOTION_DDOT
GAOFEN-11 01,2018-063A,2026-06-14T14:23:35.697408,15.55226453,.00034606,97.1298,232.4868,9.4333,350.6987,0,U,43585,999,43994,.27286557E-3,.18367E-3,0
ICESAT-2,2018-070A,2026-06-14T14:25:57.199872,15.28243048,.00059088,92.0078,290.2802,112.1697,248.0180,0,U,43613,999,43206,.33159602E-3,.9127E-4,0
HYSIS,2018-096A,2026-06-14T13:44:09.672288,14.78693575,.00018889,97.9847,232.3411,107.9346,252.2071,0,U,43719,999,40703,.21731109E-3,.1542E-4,0
KAZSTSAT,2018-099AB,2026-06-14T13:29:46.681440,14.99858769,.00083696,97.4266,197.6100,76.7110,283.5047,0,U,43783,999,41091,.1141662E-3,.1359E-4,0
SAUDISAT 5A,2018-102A,2026-06-14T14:39:40.001760,15.28024347,.00108614,97.3073,227.2412,136.9606,223.2485,0,U,43831,999,41528,.19228708E-3,.5191E-4,0
SAUDISAT 5B,2018-102C,2026-06-14T15:07:25.589856,15.28282617,.00115146,97.3181,230.3251,139.2891,220.9212,0,U,43833,999,41540,.17845253E-3,.4851E-4,0
GAOFEN-10R,2019-066A,2026-06-14T15:46:42.557664,14.83055762,.00065206,98.0496,119.2183,134.5207,225.6540,0,U,44622,999,36200,.13230089E-3,.1022E-4,0
CARTOSAT-3,2019-081A,2026-06-14T14:07:41.518272,15.19267073,.00129459,97.4313,227.4973,157.1180,203.0635,0,U,44804,999,36307,.23724217E-3,.4945E-4,0
GAOFEN-12 01,2019-082A,2026-06-14T15:31:01.994304,14.80456735,.00023491,97.8100,172.0931,73.4606,286.6865,0,U,44819,999,35371,.51859153E-4,.346E-5,0
CSG-1,2019-092A,2026-06-14T14:54:11.337984,14.82151266,.00014567,97.8888,349.2607,89.1493,270.9887,0,U,44873,999,35109,.54884493E-4,.385E-5,0
NEMO-HD,2020-061F,2026-06-14T14:28:30.546048,15.44547179,.00024144,97.1925,227.5819,84.3104,275.8420,0,U,46277,999,32158,.21339493E-3,.9823E-4,0
SENTINEL-6A,2020-086A,2026-06-14T06:35:38.393952,12.80929974,.00079516,66.0392,141.1015,270.2649,89.7455,0,U,46984,999,25995,.5112436E-5,-.6E-6,0
CAS500-1,2021-022A,2026-06-14T15:03:39.348000,15.20182831,.00039255,97.3911,60.9332,314.8932,45.1985,0,U,47932,999,29037,.25882898E-3,.5538E-4,0
GAOFEN-12 02,2021-026A,2026-06-14T14:09:13.716576,14.80294289,.00035354,97.9928,163.7809,232.7463,127.3427,0,U,48079,999,28137,.4814636E-4,.314E-5,0
PLEIADES NEO 3,2021-034A,2026-06-14T14:51:54.436320,14.81669210,.00013624,97.8936,240.4231,85.6917,274.4452,0,U,48268,999,27727,.16039585E-3,.121E-4,0
PLEIADES NEO 4,2021-073E,2026-06-14T14:03:16.151904,14.81688074,.00014044,97.8942,240.3856,86.5960,273.5414,0,U,49070,999,26098,.23497077E-3,.1798E-4,0
LANDSAT 9,2021-088A,2026-06-14T04:12:02.713824,14.57095086,.00014275,98.2281,235.3889,85.5211,274.6150,0,U,49260,999,25056,.74138068E-4,.288E-5,0
CSG-2,2022-008A,2026-06-14T15:42:46.791936,14.82153350,.00013974,97.8879,349.2891,84.8457,275.2916,0,U,51444,999,23621,.14912632E-4,.67E-6,0
GAOFEN-12 03,2022-069A,2026-06-14T14:51:38.102400,14.80030022,.00019508,97.8292,53.5546,105.2750,254.8678,0,U,52912,999,21423,.67023527E-4,.457E-5,0
SWOT,2022-173A,2026-06-14T13:24:40.999104,14.00169318,.00002475,77.6108,38.8584,94.1751,265.9429,0,U,54754,999,17878,.40598845E-4,.57E-6,0
GAOFEN-12 04,2023-123A,2026-06-14T15:16:08.427360,14.80224304,.00017903,97.9126,83.6905,84.5945,275.5471,0,U,57654,999,15225,.12247328E-3,.88E-5,0
PARS 1,2024-039Q,2026-06-14T14:17:34.084896,15.45677146,.00113595,97.4816,146.4336,119.4778,240.7605,0,U,59065,999,12824,.21228942E-3,.10174E-3,0
RESURS-P 4,2024-061A,2026-06-14T15:37:01.884864,15.32118202,.00019772,97.2754,113.5937,129.0158,231.1261,0,U,59371,999,12337,.94927136E-4,.2867E-4,0
LEGION 1,2024-081A,2026-06-14T12:31:38.949312,15.16650555,.0009781,97.5022,243.4070,26.8785,333.2953,0,U,59625,999,11713,.17379764E-3,.3336E-4,0
LEGION 2,2024-081B,2026-06-14T13:14:46.084128,15.16630206,.0011013,97.5023,243.5343,353.3066,6.8018,0,U,59626,999,11714,.18790821E-3,.3611E-4,0
ALOS-4 (DAICHI-4),2024-123A,2026-06-14T14:07:23.514240,14.79471640,.00015781,97.9245,262.7987,97.9376,262.2015,0,U,60182,999,10549,.18426014E-3,.1325E-4,0
LEGION 3,2024-146A,2026-06-14T13:27:59.926464,15.16020952,.00073412,45.0025,44.6391,154.8741,205.2496,0,U,60452,999,10162,.1751974E-3,.3162E-4,0
LEGION 4,2024-146B,2026-06-14T15:07:18.407424,15.16012536,.00139767,44.9997,136.1792,294.9912,64.9515,0,U,60453,999,10048,.17953988E-3,.325E-4,0
SENTINEL-2C,2024-157A,2026-06-14T10:41:11.531904,14.30817095,.00010674,98.5692,240.2660,80.6791,279.4513,0,U,60989,999,9259,.51185036E-4,.91E-6,0
IONOSFERA-M 1,2024-199A,2026-06-14T14:12:05.662944,14.22753837,.00018787,98.7176,38.7913,113.8680,246.2695,0,U,61735,999,12733,.44992477E-4,.57E-6,0
