GAOFEN-11 01            
1 43585U 18063A   26165.59971872  .00018367  00000+0  27287-3 0  9994
2 43585  97.1298 232.4868 0003460   9.4333 350.6987 15.55226453439946
ICESAT-2                
1 43613U 18070A   26165.60135648  .00009127  00000+0  33160-3 0  9990
2 43613  92.0078 290.2802 0005908 112.1697 248.0180 15.28243048432062
HYSIS                   
1 43719U 18096A   26165.57233417  .00001542  00000+0  21731-3 0  9998
2 43719  97.9847 232.3411 0001888 107.9346 252.2071 14.78693575407039
KAZSTSAT                
1 43783U 18099AB  26165.56234585  .00001359  00000+0  11417-3 0  9994
2 43783  97.4266 197.6100 0008369  76.7110 283.5047 14.99858769410913
SAUDISAT 5A             
1 43831U 18102A   26165.61087965  .00005191  00000+0  19229-3 0  9994
2 43831  97.3073 227.2412 0010861 136.9606 223.2485 15.28024347415289
SAUDISAT 5B             
1 43833U 18102C   26165.63015729  .00004851  00000+0  17845-3 0  9991
2 43833  97.3181 230.3251 0011514 139.2891 220.9212 15.28282617415407
GAOFEN-10R              
1 44622U 19066A   26165.65743701  .00001022  00000+0  13230-3 0  9999
2 44622  98.0496 119.2183 0006520 134.5207 225.6540 14.83055762362002
CARTOSAT-3              
1 44804U 19081A   26165.58867498  .00004945  00000+0  23724-3 0  9996
2 44804  97.4313 227.4973 0012945 157.1180 203.0635 15.19267073363076
GAOFEN-12 01            
1 44819U 19082A   26165.64655086  .00000346  00000+0  51859-4 0  9990
2 44819  97.8100 172.0931 0002349  73.4606 286.6865 14.80456735353713
CSG-1                   
1 44873U 19092A   26165.62096456  .00000385  00000+0  54884-4 0  9993
2 44873  97.8888 349.2607 0001456  89.1493 270.9887 14.82151266351092
NEMO-HD                 
1 46277U 20061F   26165.60313132  .00009823  00000+0  21339-3 0  9996
2 46277  97.1925 227.5819 0002414  84.3104 275.8420 15.44547179321580
SENTINEL-6A             
1 46984U 20086A   26165.27474993 -.00000060  00000+0  51124-5 0  9996
2 46984  66.0392 141.1015 0007951 270.2649  89.7455 12.80929974259953
CAS500-1                
1 47932U 21022A   26165.62753875  .00005538  00000+0  25883-3 0  9994
2 47932  97.3911  60.9332 0003925 314.8932  45.1985 15.20182831290373
GAOFEN-12 02            
1 48079U 21026A   26165.58974209  .00000314  00000+0  48146-4 0  9997
2 48079  97.9928 163.7809 0003535 232.7463 127.3427 14.80294289281375
PLEIADES NEO 3          
1 48268U 21034A   26165.61938005  .00001210  00000+0  16040-3 0  9997
2 48268  97.8936 240.4231 0001362  85.6917 274.4452 14.81669210277277
PLEIADES NEO 4          
1 49070U 21073E   26165.58560361  .00001798  00000+0  23497-3 0  9999
2 49070  97.8942 240.3856 0001404  86.5960 273.5414 14.81688074260980
LANDSAT 9               
1 49260U 21088A   26165.17503141  .00000288  00000+0  74138-4 0  9996
2 49260  98.2281 235.3889 0001427  85.5211 274.6150 14.57095086250565
CSG-2                   
1 51444U 22008A   26165.65470824  .00000067  00000+0  14913-4 0  9990
2 51444  97.8879 349.2891 0001397  84.8457 275.2916 14.82153350236218
GAOFEN-12 03            
1 52912U 22069A   26165.61919100  .00000457  00000+0  67024-4 0  9993
2 52912  97.8292  53.5546 0001950 105.2750 254.8678 14.80030022214233
SWOT                    
1 54754U 22173A   26165.55880786  .00000057  00000+0  40599-4 0  9999
2 54754  77.6108  38.8584 0000247  94.1751 265.9429 14.00169318178783
GAOFEN-12 04            
1 57654U 23123A   26165.63620865  .00000880  00000+0  12247-3 0  9998
2 57654  97.9126  83.6905 0001790  84.5945 275.5471 14.80224304152250
PARS 1                  
1 59065U 24039Q   26165.59553339  .00010174  00000+0  21229-3 0  9996
2 59065  97.4816 146.4336 0011359 119.4778 240.7605 15.45677146128242
RESURS-P 4              
1 59371U 24061A   26165.65071626  .00002867  00000+0  94927-4 0  9998
2 59371  97.2754 113.5937 0001977 129.0158 231.1261 15.32118202123377
LEGION 1                
1 59625U 24081A   26165.52197858  .00003336  00000+0  17380-3 0  9993
2 59625  97.5022 243.4070 0009781  26.8785 333.2953 15.16650555117135
LEGION 2                
1 59626U 24081B   26165.55192227  .00003611  00000+0  18791-3 0  9995
2 59626  97.5023 243.5343 0011013 353.3066   6.8018 15.16630206117149
ALOS-4 (DAICHI-4)       
1 60182U 24123A   26165.58846660  .00001325  00000+0  18426-3 0  9996
2 60182  97.9245 262.7987 0001578  97.9376 262.2015 14.79471640105498
LEGION 3                
1 60452U 24146A   26165.56111026  .00003162  00000+0  17520-3 0  9995
2 60452  45.0025  44.6391 0007341 154.8741 205.2496 15.16020952101626
LEGION 4                
1 60453U 24146B   26165.63007416  .00003250  00000+0  17954-3 0  9990
2 60453  44.9997 136.1792 0013976 294.9912  64.9515 15.16012536100486
SENTINEL-2C             
1 60989U 24157A   26165.44527236  .00000091  00000+0  51185-4 0  9997
2 60989  98.5692 240.2660 0001067  80.6791 279.4513 14.30817095 92592
IONOSFERA-M 1           
1 61735U 24199A   26165.59173221  .00000057  00000+0  44992-4 0  9990
2 61735  98.7176  38.7913 0001878 113.8680 246.2695 14.22753837127336
